{
  "type": "FeatureCollection",
  "features": [
    {
      "type": "Feature",
      "properties": {
        "norad_id": 66968,
        "name": "STARLINK-36152",
        "group": "last-30-days",
        "lat": -3.2947065456020352,
        "lon": -60.90979532817174,
        "alt_km": 335.1586183356012,
        "timestamp": "2025-12-21T03:56:49.617795+00:00",
        "meta_object_name": "STARLINK-36152",
        "meta_object_id": "2025-288K",
        "meta_epoch": "2025-12-20T20:00:01.999008",
        "meta_mean_motion": 15.79448615,
        "meta_eccentricity": 0.0001467,
        "meta_inclination": 43.0014,
        "meta_ra_of_asc_node": 117.5694,
        "meta_arg_of_pericenter": 285.699,
        "meta_mean_anomaly": 174.6614,
        "meta_ephemeris_type": 0,
        "meta_classification_type": "U",
        "meta_norad_cat_id": 66968,
        "meta_element_set_no": 999,
        "meta_rev_at_epoch": 313,
        "meta_bstar": -0.0080174,
        "meta_mean_motion_dot": -0.01340347,
        "meta_mean_motion_ddot": 0,
        "tle_line1": "1 66968U 25288K   25354.83335647 -.01340347  00000+0 -80174-2 0  9993",
        "tle_line2": "2 66968  43.0014 117.5694 0001467 285.6990 174.6614 15.79448615  3135"
      },
      "geometry": {
        "type": "Point",
        "coordinates": [
          -60.90979532817174,
          -3.2947065456020352
        ]
      }
    },
    {
      "type": "Feature",
      "properties": {
        "norad_id": 66969,
        "name": "STARLINK-36149",
        "group": "last-30-days",
        "lat": -10.61684586410154,
        "lon": -52.874387407861775,
        "alt_km": 336.56373451747186,
        "timestamp": "2025-12-21T03:56:49.617804+00:00",
        "meta_object_name": "STARLINK-36149",
        "meta_object_id": "2025-288L",
        "meta_epoch": "2025-12-20T20:00:01.999008",
        "meta_mean_motion": 15.79289626,
        "meta_eccentricity": 0.0001291,
        "meta_inclination": 43.0013,
        "meta_ra_of_asc_node": 117.5415,
        "meta_arg_of_pericenter": 287.1449,
        "meta_mean_anomaly": 184.3132,
        "meta_ephemeris_type": 0,
        "meta_classification_type": "U",
        "meta_norad_cat_id": 66969,
        "meta_element_set_no": 999,
        "meta_rev_at_epoch": 313,
        "meta_bstar": -0.0089754,
        "meta_mean_motion_dot": -0.0147202,
        "meta_mean_motion_ddot": 0,
        "tle_line1": "1 66969U 25288L   25354.83335647 -.01472020  00000+0 -89754-2 0  9991",
        "tle_line2": "2 66969  43.0013 117.5415 0001291 287.1449 184.3132 15.79289626  3135"
      },
      "geometry": {
        "type": "Point",
        "coordinates": [
          -52.874387407861775,
          -10.61684586410154
        ]
      }
    },
    {
      "type": "Feature",
      "properties": {
        "norad_id": 66970,
        "name": "STARLINK-35703",
        "group": "last-30-days",
        "lat": -16.271207891210064,
        "lon": -46.247705558070216,
        "alt_km": 337.6790842823102,
        "timestamp": "2025-12-21T03:56:49.617818+00:00",
        "meta_object_name": "STARLINK-35703",
        "meta_object_id": "2025-288M",
        "meta_epoch": "2025-12-20T20:00:01.999008",
        "meta_mean_motion": 15.79069328,
        "meta_eccentricity": 0.0001435,
        "meta_inclination": 43.0011,
        "meta_ra_of_asc_node": 117.5188,
        "meta_arg_of_pericenter": 288.5793,
        "meta_mean_anomaly": 191.7461,
        "meta_ephemeris_type": 0,
        "meta_classification_type": "U",
        "meta_norad_cat_id": 66970,
        "meta_element_set_no": 999,
        "meta_rev_at_epoch": 313,
        "meta_bstar": -0.0092211,
        "meta_mean_motion_dot": -0.01494167,
        "meta_mean_motion_ddot": 0,
        "tle_line1": "1 66970U 25288M   25354.83335647 -.01494167  00000+0 -92211-2 0  9991",
        "tle_line2": "2 66970  43.0011 117.5188 0001435 288.5793 191.7461 15.79069328  3131"
      },
      "geometry": {
        "type": "Point",
        "coordinates": [
          -46.247705558070216,
          -16.271207891210064
        ]
      }
    },
    {
      "type": "Feature",
      "properties": {
        "norad_id": 66971,
        "name": "STARLINK-35678",
        "group": "last-30-days",
        "lat": -4.56763356056669,
        "lon": -59.537826495049536,
        "alt_km": 335.2385489769049,
        "timestamp": "2025-12-21T03:56:49.617827+00:00",
        "meta_object_name": "STARLINK-35678",
        "meta_object_id": "2025-288N",
        "meta_epoch": "2025-12-20T20:00:01.999008",
        "meta_mean_motion": 15.79466805,
        "meta_eccentricity": 0.0001539,
        "meta_inclination": 43.0017,
        "meta_ra_of_asc_node": 117.5652,
        "meta_arg_of_pericenter": 286.2592,
        "meta_mean_anomaly": 175.9505,
        "meta_ephemeris_type": 0,
        "meta_classification_type": "U",
        "meta_norad_cat_id": 66971,
        "meta_element_set_no": 999,
        "meta_rev_at_epoch": 313,
        "meta_bstar": -0.0079795,
        "meta_mean_motion_dot": -0.01335732,
        "meta_mean_motion_ddot": 0,
        "tle_line1": "1 66971U 25288N   25354.83335647 -.01335732  00000+0 -79795-2 0  9996",
        "tle_line2": "2 66971  43.0017 117.5652 0001539 286.2592 175.9505 15.79466805  3135"
      },
      "geometry": {
        "type": "Point",
        "coordinates": [
          -59.537826495049536,
          -4.56763356056669
        ]
      }
    },
    {
      "type": "Feature",
      "properties": {
        "norad_id": 66972,
        "name": "STARLINK-34846",
        "group": "last-30-days",
        "lat": -6.143883206881127,
        "lon": -57.82859540604444,
        "alt_km": 335.6560625101574,
        "timestamp": "2025-12-21T03:56:49.617836+00:00",
        "meta_object_name": "STARLINK-34846",
        "meta_object_id": "2025-288P",
        "meta_epoch": "2025-12-20T20:00:01.999008",
        "meta_mean_motion": 15.79411807,
        "meta_eccentricity": 0.0001581,
        "meta_inclination": 43.0016,
        "meta_ra_of_asc_node": 117.559,
        "meta_arg_of_pericenter": 288.1418,
        "meta_mean_anomaly": 176.4741,
        "meta_ephemeris_type": 0,
        "meta_classification_type": "U",
        "meta_norad_cat_id": 66972,
        "meta_element_set_no": 999,
        "meta_rev_at_epoch": 313,
        "meta_bstar": -0.008219,
        "meta_mean_motion_dot": -0.013684,
        "meta_mean_motion_ddot": 0,
        "tle_line1": "1 66972U 25288P   25354.83335647 -.01368400  00000+0 -82190-2 0  9998",
        "tle_line2": "2 66972  43.0016 117.5590 0001581 288.1418 176.4741 15.79411807  3131"
      },
      "geometry": {
        "type": "Point",
        "coordinates": [
          -57.82859540604444,
          -6.143883206881127
        ]
      }
    },
    {
      "type": "Feature",
      "properties": {
        "norad_id": 66973,
        "name": "STARLINK-35778",
        "group": "last-30-days",
        "lat": -7.633781136969774,
        "lon": -56.19775351296259,
        "alt_km": 335.90795867167344,
        "timestamp": "2025-12-21T03:56:49.617845+00:00",
        "meta_object_name": "STARLINK-35778",
        "meta_object_id": "2025-288Q",
        "meta_epoch": "2025-12-20T20:00:01.999008",
        "meta_mean_motion": 15.79381383,
        "meta_eccentricity": 0.000173,
        "meta_inclination": 43.0016,
        "meta_ra_of_asc_node": 117.5536,
        "meta_arg_of_pericenter": 285.6414,
        "meta_mean_anomaly": 181.2354,
        "meta_ephemeris_type": 0,
        "meta_classification_type": "U",
        "meta_norad_cat_id": 66973,
        "meta_element_set_no": 999,
        "meta_rev_at_epoch": 313,
        "meta_bstar": -0.0084818,
        "meta_mean_motion_dot": -0.01405625,
        "meta_mean_motion_ddot": 0,
        "tle_line1": "1 66973U 25288Q   25354.83335647 -.01405625  00000+0 -84818-2 0  9999",
        "tle_line2": "2 66973  43.0016 117.5536 0001730 285.6414 181.2354 15.79381383  3135"
      },
      "geometry": {
        "type": "Point",
        "coordinates": [
          -56.19775351296259,
          -7.633781136969774
        ]
      }
    },
    {
      "type": "Feature",
      "properties": {
        "norad_id": 66974,
        "name": "STARLINK-35780",
        "group": "last-30-days",
        "lat": -9.09320756502391,
        "lon": -54.58254186418439,
        "alt_km": 336.18510930823686,
        "timestamp": "2025-12-21T03:56:49.617853+00:00",
        "meta_object_name": "STARLINK-35780",
        "meta_object_id": "2025-288R",
        "meta_epoch": "2025-12-20T20:00:01.999008",
        "meta_mean_motion": 15.79343889,
        "meta_eccentricity": 0.0001673,
        "meta_inclination": 43.0017,
        "meta_ra_of_asc_node": 117.5483,
        "meta_arg_of_pericenter": 285.7989,
        "meta_mean_anomaly": 183.3026,
        "meta_ephemeris_type": 0,
        "meta_classification_type": "U",
        "meta_norad_cat_id": 66974,
        "meta_element_set_no": 999,
        "meta_rev_at_epoch": 313,
        "meta_bstar": -0.0086648,
        "meta_mean_motion_dot": -0.01430278,
        "meta_mean_motion_ddot": 0,
        "tle_line1": "1 66974U 25288R   25354.83335647 -.01430278  00000+0 -86648-2 0  9995",
        "tle_line2": "2 66974  43.0017 117.5483 0001673 285.7989 183.3026 15.79343889  3130"
      },
      "geometry": {
        "type": "Point",
        "coordinates": [
          -54.58254186418439,
          -9.09320756502391
        ]
      }
    }
  ]
}